<?xml version='1.0' encoding='utf-8'?>
<q:quakeml xmlns="http://quakeml.org/xmlns/bed/1.2" xmlns:q="http://quakeml.org/xmlns/quakeml/1.2">
  <eventParameters publicID="smi:local/dee1ff1e-413e-4826-be45-754af9d6bb76">
    <event publicID="smi:nz.org.geonet/2019p866595">
      <preferredOriginID>smi:nz.org.geonet/Origin/20191117152540.32273.49455</preferredOriginID>
      <preferredMagnitudeID>smi:nz.org.geonet/Origin/20191117152540.32273.49455/netMag/M</preferredMagnitudeID>
      <type>earthquake</type>
      <description>
        <text>Bay of Plenty</text>
        <type>region name</type>
      </description>
      <creationInfo>
        <agencyID>WEL(GNS_Primary)</agencyID>
        <author>scevent@kseqp02.geonet.org.nz</author>
        <creationTime>2019-11-17T15:22:51.111990Z</creationTime>
      </creationInfo>
      <origin publicID="smi:nz.org.geonet/Origin/20191117152540.32273.49455">
        <time>
          <value>2019-11-17T15:21:51.575123Z</value>
          <uncertainty>1.668366645</uncertainty>
          <confidenceLevel>89.99999762</confidenceLevel>
        </time>
        <latitude>
          <value>-37.61406708</value>
          <uncertainty>14.32099244</uncertainty>
          <confidenceLevel>89.99999762</confidenceLevel>
        </latitude>
        <longitude>
          <value>176.6888885</value>
          <uncertainty>16.78548322</uncertainty>
          <confidenceLevel>89.99999762</confidenceLevel>
        </longitude>
        <depth>
          <value>130824.5392</value>
          <uncertainty>11388.62591</uncertainty>
          <confidenceLevel>89.99999762</confidenceLevel>
        </depth>
        <methodID>smi:nz.org.geonet/LOCSAT</methodID>
        <earthModelID>smi:nz.org.geonet/iasp91</earthModelID>
        <quality>
          <associatedPhaseCount>16</associatedPhaseCount>
          <usedPhaseCount>14</usedPhaseCount>
          <associatedStationCount>12</associatedStationCount>
          <usedStationCount>10</usedStationCount>
          <depthPhaseCount>0</depthPhaseCount>
          <standardError>0.4047824826</standardError>
          <azimuthalGap>303.1661148</azimuthalGap>
          <minimumDistance>0.725410521</minimumDistance>
          <maximumDistance>1.80993247</maximumDistance>
          <medianDistance>1.231748462</medianDistance>
        </quality>
        <evaluationMode>manual</evaluationMode>
        <evaluationStatus>confirmed</evaluationStatus>
        <creationInfo>
          <agencyID>WEL(GNS_Primary)</agencyID>
          <author>sarahoh@kseqx02.geonet.org.nz</author>
          <creationTime>2019-11-17T15:25:40.322926Z</creationTime>
        </creationInfo>
        <originUncertainty>
          <preferredDescription>confidence ellipsoid</preferredDescription>
          <horizontalUncertainty>22064.52518</horizontalUncertainty>
          <minHorizontalUncertainty>17723.43536</minHorizontalUncertainty>
          <maxHorizontalUncertainty>22683.63813</maxHorizontalUncertainty>
          <azimuthMaxHorizontalUncertainty>65.31029515</azimuthMaxHorizontalUncertainty>
          <confidenceEllipsoid>
            <semiMajorAxisLength>26906556.77</semiMajorAxisLength>
            <semiMinorAxisLength>16559141.71</semiMinorAxisLength>
            <semiIntermediateAxisLength>20649690.17</semiIntermediateAxisLength>
            <majorAxisPlunge>166.2306123</majorAxisPlunge>
            <majorAxisAzimuth>65.2975395</majorAxisAzimuth>
            <majorAxisRotation>103.7697145</majorAxisRotation>
          </confidenceEllipsoid>
        </originUncertainty>
        <arrival publicID="smi:nz.org.geonet/Pick/20191117152515.529063.49435_Origin/20191117152540.32273.49455">
          <pickID>smi:nz.org.geonet/Pick/20191117152515.529063.49435</pickID>
          <phase>P</phase>
          <azimuth>152.7427521</azimuth>
          <distance>0.725410521</distance>
          <timeResidual>-0.3540821075</timeResidual>
          <timeWeight>1.0</timeWeight>
        </arrival>
        <arrival publicID="smi:nz.org.geonet/Pick/20191117152515.52917.49436_Origin/20191117152540.32273.49455">
          <pickID>smi:nz.org.geonet/Pick/20191117152515.52917.49436</pickID>
          <phase>S</phase>
          <azimuth>152.7427521</azimuth>
          <distance>0.725410521</distance>
          <timeResidual>-0.2984085083</timeResidual>
          <timeWeight>1.0</timeWeight>
        </arrival>
        <arrival publicID="smi:nz.org.geonet/Pick/20191117152515.529231.49437_Origin/20191117152540.32273.49455">
          <pickID>smi:nz.org.geonet/Pick/20191117152515.529231.49437</pickID>
          <phase>P</phase>
          <azimuth>99.61312103</azimuth>
          <distance>0.8792077899</distance>
          <timeResidual>-0.3393440247</timeResidual>
          <timeWeight>1.0</timeWeight>
        </arrival>
        <arrival publicID="smi:nz.org.geonet/Pick/20191117152515.529272.49438_Origin/20191117152540.32273.49455">
          <pickID>smi:nz.org.geonet/Pick/20191117152515.529272.49438</pickID>
          <phase>S</phase>
          <azimuth>99.61312103</azimuth>
          <distance>0.8792077899</distance>
          <timeResidual>-0.3684902191</timeResidual>
          <timeWeight>1.0</timeWeight>
        </arrival>
        <arrival publicID="smi:nz.org.geonet/20191117.152215.15-AIC-NZ.MWZ.10.HHZ_Origin/20191117152540.32273.49455">
          <pickID>smi:nz.org.geonet/20191117.152215.15-AIC-NZ.MWZ.10.HHZ</pickID>
          <phase>P</phase>
          <azimuth>137.5678101</azimuth>
          <distance>0.9778060913</distance>
          <timeResidual>0.7184505463</timeResidual>
          <timeWeight>1.0</timeWeight>
        </arrival>
        <arrival publicID="smi:nz.org.geonet/Pick/20191117152338.93625.49054_Origin/20191117152540.32273.49455">
          <pickID>smi:nz.org.geonet/Pick/20191117152338.93625.49054</pickID>
          <phase>S</phase>
          <azimuth>137.5678101</azimuth>
          <distance>0.9778060913</distance>
          <timeResidual>0.6738681793</timeResidual>
          <timeWeight>1.0</timeWeight>
        </arrival>
        <arrival publicID="smi:nz.org.geonet/Pick/20191117152515.529323.49439_Origin/20191117152540.32273.49455">
          <pickID>smi:nz.org.geonet/Pick/20191117152515.529323.49439</pickID>
          <phase>P</phase>
          <azimuth>103.285408</azimuth>
          <distance>1.131624579</distance>
          <timeResidual>0.1728477478</timeResidual>
          <timeWeight>1.0</timeWeight>
        </arrival>
        <arrival publicID="smi:nz.org.geonet/Pick/20191117152515.529367.49440_Origin/20191117152540.32273.49455">
          <pickID>smi:nz.org.geonet/Pick/20191117152515.529367.49440</pickID>
          <phase>P</phase>
          <azimuth>132.3274231</azimuth>
          <distance>1.231748462</distance>
          <timeResidual>-0.1563301086</timeResidual>
          <timeWeight>1.0</timeWeight>
        </arrival>
        <arrival publicID="smi:nz.org.geonet/Pick/20191117152515.529404.49441_Origin/20191117152540.32273.49455">
          <pickID>smi:nz.org.geonet/Pick/20191117152515.529404.49441</pickID>
          <phase>S</phase>
          <azimuth>132.3274231</azimuth>
          <distance>1.231748462</distance>
          <timeResidual>-0.02576637268</timeResidual>
          <timeWeight>1.0</timeWeight>
        </arrival>
        <arrival publicID="smi:nz.org.geonet/20191117.152217.88-AIC-NZ.SNGZ.10.EHZ_Origin/20191117152540.32273.49455">
          <pickID>smi:nz.org.geonet/20191117.152217.88-AIC-NZ.SNGZ.10.EHZ</pickID>
          <phase>P</phase>
          <azimuth>156.4470062</azimuth>
          <distance>1.273427725</distance>
          <timeResidual>0.4859008789</timeResidual>
          <timeWeight>1.0</timeWeight>
        </arrival>
        <arrival publicID="smi:nz.org.geonet/20191117.152218.66-AIC-NZ.RIGZ.10.EHZ_Origin/20191117152540.32273.49455">
          <pickID>smi:nz.org.geonet/20191117.152218.66-AIC-NZ.RIGZ.10.EHZ</pickID>
          <phase>P</phase>
          <azimuth>142.5085144</azimuth>
          <distance>1.379803419</distance>
          <timeResidual>0.122833252</timeResidual>
          <timeWeight>1.0</timeWeight>
        </arrival>
        <arrival publicID="smi:nz.org.geonet/20191117.152219.95-AIC-NZ.CNGZ.10.EHZ_Origin/20191117152540.32273.49455">
          <pickID>smi:nz.org.geonet/20191117.152219.95-AIC-NZ.CNGZ.10.EHZ</pickID>
          <phase>P</phase>
          <azimuth>126.3756332</azimuth>
          <distance>1.480230927</distance>
          <timeResidual>0.3157997131</timeResidual>
          <timeWeight>1.0</timeWeight>
        </arrival>
        <arrival publicID="smi:nz.org.geonet/20191117.152220.50-AIC-NZ.KNZ.10.HHZ_Origin/20191117152540.32273.49455">
          <pickID>smi:nz.org.geonet/20191117.152220.50-AIC-NZ.KNZ.10.HHZ</pickID>
          <phase>P</phase>
          <azimuth>151.4412384</azimuth>
          <distance>1.604782701</distance>
          <timeResidual>-0.5153751373</timeResidual>
          <timeWeight>1.0</timeWeight>
        </arrival>
        <arrival publicID="smi:nz.org.geonet/20191117.152222.91-AIC-NZ.MHGZ.10.EHZ_Origin/20191117152540.32273.49455">
          <pickID>smi:nz.org.geonet/20191117.152222.91-AIC-NZ.MHGZ.10.EHZ</pickID>
          <phase>P</phase>
          <azimuth>148.4433441</azimuth>
          <distance>1.80993247</distance>
          <timeResidual>-0.4321403503</timeResidual>
          <timeWeight>1.0</timeWeight>
        </arrival>
        <arrival publicID="smi:nz.org.geonet/20191117.152226.94-AIC-NZ.KAHZ.10.EHZ_Origin/20191117152540.32273.49455">
          <pickID>smi:nz.org.geonet/20191117.152226.94-AIC-NZ.KAHZ.10.EHZ</pickID>
          <phase>P</phase>
          <azimuth>176.1981049</azimuth>
          <distance>2.181853533</distance>
          <timeResidual>-0.8641910553</timeResidual>
        </arrival>
        <arrival publicID="smi:nz.org.geonet/20191117.152229.05-AIC-NZ.PXZ.10.HHZ_Origin/20191117152540.32273.49455">
          <pickID>smi:nz.org.geonet/20191117.152229.05-AIC-NZ.PXZ.10.HHZ</pickID>
          <phase>P</phase>
          <azimuth>176.8436127</azimuth>
          <distance>2.416845798</distance>
          <timeResidual>-1.697406769</timeResidual>
        </arrival>
      </origin>
      <magnitude publicID="smi:nz.org.geonet/Magnitude/20191117152557.50061.49476">
        <mag>
          <value>2.439465245</value>
          <uncertainty>0.3206245062</uncertainty>
        </mag>
        <type>MLv</type>
        <originID>smi:nz.org.geonet/Origin/20191117152540.32273.49455</originID>
        <methodID>smi:nz.org.geonet/trimmed_mean</methodID>
        <stationCount>2</stationCount>
        <evaluationStatus>confirmed</evaluationStatus>
        <stationMagnitudeContribution>
          <stationMagnitudeID>smi:nz.org.geonet/StationMagnitude/20191117152649.826074.49549</stationMagnitudeID>
          <weight>0.75</weight>
          <residual>-0.185112645</residual>
        </stationMagnitudeContribution>
        <stationMagnitudeContribution>
          <stationMagnitudeID>smi:nz.org.geonet/StationMagnitude/20191117152649.826238.49550</stationMagnitudeID>
          <weight>0.75</weight>
          <residual>0.185112645</residual>
        </stationMagnitudeContribution>
        <creationInfo>
          <agencyID>WEL(GNS_Primary)</agencyID>
          <author>sarahoh@kseqx02.geonet.org.nz</author>
          <creationTime>2019-11-17T15:26:49.825845Z</creationTime>
        </creationInfo>
      </magnitude>
      <magnitude publicID="smi:nz.org.geonet/Origin/20191117152540.32273.49455/netMag/M">
        <mag>
          <value>2.439465245</value>
        </mag>
        <type>M</type>
        <originID>smi:nz.org.geonet/Origin/20191117152540.32273.49455</originID>
        <methodID>smi:nz.org.geonet/weighted_average</methodID>
        <stationCount>2</stationCount>
        <creationInfo>
          <agencyID>WEL(GNS_Primary)</agencyID>
          <author>scmag@kseqp02.geonet.org.nz</author>
          <creationTime>2019-11-17T15:27:08.629288Z</creationTime>
        </creationInfo>
      </magnitude>
      <stationMagnitude publicID="smi:nz.org.geonet/StationMagnitude/20191117152649.826074.49549">
        <originID>smi:nz.org.geonet/Origin/20191117152540.32273.49455</originID>
        <mag>
          <value>2.2543526</value>
        </mag>
        <type>MLv</type>
        <amplitudeID>smi:nz.org.geonet/20191117.152218.66-AIC-NZ.RIGZ.10.EHZ.MLv</amplitudeID>
        <waveformID networkCode="NZ" stationCode="RIGZ" locationCode="10" channelCode="EHZ"></waveformID>
        <creationInfo>
          <agencyID>WEL(GNS_Primary)</agencyID>
          <author>sarahoh@kseqx02.geonet.org.nz</author>
          <creationTime>2019-11-17T15:26:49.826101Z</creationTime>
        </creationInfo>
      </stationMagnitude>
      <stationMagnitude publicID="smi:nz.org.geonet/StationMagnitude/20191117152649.826238.49550">
        <originID>smi:nz.org.geonet/Origin/20191117152540.32273.49455</originID>
        <mag>
          <value>2.62457789</value>
        </mag>
        <type>MLv</type>
        <amplitudeID>smi:nz.org.geonet/Amplitude/20191117152634.062279.49546</amplitudeID>
        <waveformID networkCode="NZ" stationCode="KAHZ" locationCode="10" channelCode="EHZ"></waveformID>
        <creationInfo>
          <agencyID>WEL(GNS_Primary)</agencyID>
          <author>sarahoh@kseqx02.geonet.org.nz</author>
          <creationTime>2019-11-17T15:26:49.826254Z</creationTime>
        </creationInfo>
      </stationMagnitude>
      <stationMagnitude publicID="smi:nz.org.geonet/Origin/20191117152540.32273.49455/staMag/MLv/NZ.SNGZ">
        <originID>smi:nz.org.geonet/Origin/20191117152540.32273.49455</originID>
        <mag>
          <value>1.93323598</value>
        </mag>
        <type>MLv</type>
        <amplitudeID>smi:nz.org.geonet/20191117.152217.88-AIC-NZ.SNGZ.10.EHZ.MLv</amplitudeID>
        <waveformID networkCode="NZ" stationCode="SNGZ" locationCode="10" channelCode="EHZ"></waveformID>
        <creationInfo>
          <agencyID>WEL(GNS_Primary)</agencyID>
          <author>scmag@kseqp02.geonet.org.nz</author>
          <creationTime>2019-11-17T15:27:08.629263Z</creationTime>
        </creationInfo>
      </stationMagnitude>
      <pick publicID="smi:nz.org.geonet/Pick/20191117152515.52917.49436">
        <time>
          <value>2019-11-17T15:22:29.450405Z</value>
        </time>
        <waveformID networkCode="NZ" stationCode="URZ" locationCode="10" channelCode="HH1"></waveformID>
        <filterID>smi:nz.org.geonet/BW(4,2,15)</filterID>
        <phaseHint>S</phaseHint>
        <evaluationMode>manual</evaluationMode>
        <creationInfo>
          <agencyID>WEL(GNS_Primary)</agencyID>
          <author>sarahoh@kseqx02.geonet.org.nz</author>
          <creationTime>2019-11-17T15:25:15.529197Z</creationTime>
        </creationInfo>
      </pick>
      <pick publicID="smi:nz.org.geonet/Pick/20191117152515.529272.49438">
        <time>
          <value>2019-11-17T15:22:30.846427Z</value>
        </time>
        <waveformID networkCode="NZ" stationCode="HAZ" locationCode="10" channelCode="HHE"></waveformID>
        <filterID>smi:nz.org.geonet/BW(4,2,15)</filterID>
        <phaseHint>S</phaseHint>
        <evaluationMode>manual</evaluationMode>
        <creationInfo>
          <agencyID>WEL(GNS_Primary)</agencyID>
          <author>sarahoh@kseqx02.geonet.org.nz</author>
          <creationTime>2019-11-17T15:25:15.529295Z</creationTime>
        </creationInfo>
      </pick>
      <pick publicID="smi:nz.org.geonet/Pick/20191117152338.93625.49054">
        <time>
          <value>2019-11-17T15:22:32.815444Z</value>
        </time>
        <waveformID networkCode="NZ" stationCode="MWZ" locationCode="10" channelCode="HHE"></waveformID>
        <filterID>smi:nz.org.geonet/BW(4,2,15)</filterID>
        <phaseHint>S</phaseHint>
        <evaluationMode>manual</evaluationMode>
        <creationInfo>
          <agencyID>WEL(GNS_Primary)</agencyID>
          <author>sarahoh@kseqx02.geonet.org.nz</author>
          <creationTime>2019-11-17T15:23:38.936342Z</creationTime>
        </creationInfo>
      </pick>
      <amplitude publicID="smi:nz.org.geonet/20191117.152218.66-AIC-NZ.RIGZ.10.EHZ.MLv">
        <genericAmplitude>
          <value>0.09718720075</value>
        </genericAmplitude>
        <type>MLv</type>
        <snr>2.646716601</snr>
        <timeWindow>
          <reference>2019-11-17T15:22:42.298393Z</reference>
          <begin>-28.63</begin>
          <end>76.37</end>
        </timeWindow>
        <pickID>smi:nz.org.geonet/20191117.152218.66-AIC-NZ.RIGZ.10.EHZ</pickID>
        <waveformID networkCode="NZ" stationCode="RIGZ" locationCode="10" channelCode="EHZ"></waveformID>
        <creationInfo>
          <agencyID>WEL(GNS_Primary)</agencyID>
          <author>scautopick@kseqp02.geonet.org.nz</author>
          <creationTime>2019-11-17T15:24:00.220918Z</creationTime>
        </creationInfo>
      </amplitude>
      <amplitude publicID="smi:nz.org.geonet/Amplitude/20191117152634.062279.49546">
        <genericAmplitude>
          <value>0.08136147835</value>
        </genericAmplitude>
        <type>MLv</type>
        <snr>1.420208499</snr>
        <timeWindow>
          <reference>2019-11-17T15:22:27.478393Z</reference>
          <begin>-0.75</begin>
          <end>1.0</end>
        </timeWindow>
        <pickID>smi:nz.org.geonet/20191117.152226.94-AIC-NZ.KAHZ.10.EHZ</pickID>
        <waveformID networkCode="NZ" stationCode="KAHZ" locationCode="10" channelCode="EHZ"></waveformID>
        <evaluationMode>manual</evaluationMode>
        <creationInfo>
          <agencyID>WEL(GNS_Primary)</agencyID>
          <author>sarahoh@kseqx02.geonet.org.nz</author>
          <creationTime>2019-11-17T15:26:34.062355Z</creationTime>
        </creationInfo>
      </amplitude>
      <amplitude publicID="smi:nz.org.geonet/20191117.152217.88-AIC-NZ.SNGZ.10.EHZ.MLv">
        <genericAmplitude>
          <value>0.05316640616</value>
        </genericAmplitude>
        <type>MLv</type>
        <snr>2.094823243</snr>
        <timeWindow>
          <reference>2019-11-17T15:23:44.588393Z</reference>
          <begin>-91.7</begin>
          <end>13.3</end>
        </timeWindow>
        <pickID>smi:nz.org.geonet/20191117.152217.88-AIC-NZ.SNGZ.10.EHZ</pickID>
        <waveformID networkCode="NZ" stationCode="SNGZ" locationCode="10" channelCode="EHZ"></waveformID>
        <creationInfo>
          <agencyID>WEL(GNS_Primary)</agencyID>
          <author>scautopick@kseqp02.geonet.org.nz</author>
          <creationTime>2019-11-17T15:23:59.218536Z</creationTime>
        </creationInfo>
      </amplitude>
    </event>
    <event publicID="smi:nz.org.geonet/2019p875006">
      <preferredOriginID>smi:nz.org.geonet/Origin/20191120182204.147863.21002</preferredOriginID>
      <preferredMagnitudeID>smi:nz.org.geonet/Origin/20191120182204.147863.21002/netMag/M</preferredMagnitudeID>
      <type>earthquake</type>
      <description>
        <text>Bay of Plenty</text>
        <type>region name</type>
      </description>
      <creationInfo>
        <agencyID>WEL(GNS_Primary)</agencyID>
        <author>scevent@kseqp02.geonet.org.nz</author>
        <creationTime>2019-11-20T18:03:52.620848Z</creationTime>
      </creationInfo>
      <origin publicID="smi:nz.org.geonet/Origin/20191120182204.147863.21002">
        <time>
          <value>2019-11-20T18:03:12.090271Z</value>
          <uncertainty>0.8200976578</uncertainty>
          <confidenceLevel>89.99999762</confidenceLevel>
        </time>
        <latitude>
          <value>-37.16844177</value>
          <uncertainty>5.615010996</uncertainty>
          <confidenceLevel>89.99999762</confidenceLevel>
        </latitude>
        <longitude>
          <value>176.9113312</value>
          <uncertainty>4.761789505</uncertainty>
          <confidenceLevel>89.99999762</confidenceLevel>
        </longitude>
        <depth>
          <value>192434.9823</value>
          <uncertainty>7625.198535</uncertainty>
