<?xml version='1.0' encoding='utf-8'?>
<q:quakeml xmlns="http://quakeml.org/xmlns/bed/1.2" xmlns:q="http://quakeml.org/xmlns/quakeml/1.2">
  <eventParameters publicID="smi:local/1410b2f1-d9ca-4881-be65-17866dc2a68e">
    <event publicID="smi:local/2019_12_17t01_33_41_20181209T224444.663134">
      <preferredOriginID>smi:local/a8e4b3fb-edd8-4365-a671-abc4865252c1</preferredOriginID>
      <comment id="smi:local/5c2c9f16-d56b-49bd-93ab-99cdcb554fe4">
        <text>Template: 2019_12_17t01_33_41</text>
      </comment>
      <comment id="smi:local/696acb1f-44aa-4179-b32c-1132985e79b2">
        <text>threshold=1.5199722051620483</text>
      </comment>
      <comment id="smi:local/9c227747-01d8-4249-bcba-4a83d75bfff2">
        <text>detect_val=4.136712074279785</text>
      </comment>
      <comment id="smi:local/9046ce58-38b3-4c8c-bc50-8bdcb327c276">
        <text>channels used: ('HAZ', 'HHN') ('MUGZ', 'EHN') ('MWZ', 'HHE') ('MXZ', 'HHE') ('URZ', 'HH2')</text>
      </comment>
      <creationInfo>
        <author>EQcorrscan</author>
        <creationTime>2020-02-16T21:40:33.121669Z</creationTime>
      </creationInfo>
      <origin publicID="smi:local/a8e4b3fb-edd8-4365-a671-abc4865252c1">
        <time>
          <value>2018-12-09T22:43:43.598069Z</value>
          <uncertainty>0.9946346605</uncertainty>
          <confidenceLevel>89.99999762</confidenceLevel>
        </time>
        <latitude>
          <value>-37.08544922</value>
          <uncertainty>5.954203022</uncertainty>
          <confidenceLevel>89.99999762</confidenceLevel>
        </latitude>
        <longitude>
          <value>176.9223022</value>
          <uncertainty>6.606819405</uncertainty>
          <confidenceLevel>89.99999762</confidenceLevel>
        </longitude>
        <depth>
          <value>250977.9205</value>
          <uncertainty>8797.634024</uncertainty>
          <confidenceLevel>89.99999762</confidenceLevel>
        </depth>
        <timeFixed>false</timeFixed>
        <methodID>smi:nz.org.geonet/LOCSAT</methodID>
        <earthModelID>smi:nz.org.geonet/iasp91</earthModelID>
        <evaluationMode>automatic</evaluationMode>
        <evaluationStatus>preliminary</evaluationStatus>
        <comment id="smi:local/4c753b3a-44d9-459f-aa5a-71975c9ef7b9">
          <text>Origin automatically assigned based on template origin: use with caution.</text>
        </comment>
        <creationInfo>
          <author>EQcorrscan</author>
          <creationTime>2020-02-16T21:40:33.122880Z</creationTime>
        </creationInfo>
        <originUncertainty>
          <preferredDescription>confidence ellipsoid</preferredDescription>
          <horizontalUncertainty>8893.964036</horizontalUncertainty>
          <minHorizontalUncertainty>7678.073506</minHorizontalUncertainty>
          <maxHorizontalUncertainty>8699.977711</maxHorizontalUncertainty>
          <azimuthMaxHorizontalUncertainty>106.7604454</azimuthMaxHorizontalUncertainty>
          <confidenceEllipsoid>
            <semiMajorAxisLength>15457833.0</semiMajorAxisLength>
            <semiMinorAxisLength>5936825.865</semiMinorAxisLength>
            <semiIntermediateAxisLength>9349776.394</semiIntermediateAxisLength>
            <majorAxisPlunge>56.86672373</majorAxisPlunge>
            <majorAxisAzimuth>134.3977512</majorAxisAzimuth>
            <majorAxisRotation>32.22985798</majorAxisRotation>
          </confidenceEllipsoid>
        </originUncertainty>
      </origin>
      <origin publicID="smi:local/b8368b5a-993d-4017-b915-c13c0aaa0300">
        <time>
          <value>2018-12-09T22:43:55.100000Z</value>
        </time>
        <latitude>
          <value>-36.606</value>
        </latitude>
        <longitude>
          <value>176.343</value>
        </longitude>
        <depth>
          <value>31400.0</value>
        </depth>
        <quality>
          <standardError>1.0</standardError>
        </quality>
        <comment id="smi:local/d034f83c-6a79-4e0e-a024-eae26505736c">
          <text>Number of stations=5</text>
        </comment>
        <arrival publicID="smi:local/7d92f8ff-c378-456d-af9c-ce3382333066">
          <pickID>smi:local/4b206a04-faa6-40c9-8e1d-2eaaf2e463c2</pickID>
          <phase>S</phase>
          <azimuth>135.0</azimuth>
          <distance>1.6277721067129023</distance>
          <timeResidual>1.16</timeResidual>
          <timeWeight>0.0</timeWeight>
        </arrival>
        <arrival publicID="smi:local/248147c1-50de-4cf0-8c96-926598e0f57c">
          <pickID>smi:local/4c81bfc7-c3cf-4837-8f38-9105c228ab2b</pickID>
          <phase>S</phase>
          <azimuth>160.0</azimuth>
          <distance>1.762670347600712</distance>
          <timeResidual>0.75</timeResidual>
          <timeWeight>0.0</timeWeight>
        </arrival>
        <arrival publicID="smi:local/0d2c989a-69ec-4f27-ac90-377fd4a55b99">
          <pickID>smi:local/eaeef50f-6cb4-47e4-b109-f02f5e6788a7</pickID>
          <phase>S</phase>
          <azimuth>122.0</azimuth>
          <distance>1.8346160760742103</distance>
          <timeResidual>-0.39</timeResidual>
          <timeWeight>0.0</timeWeight>
        </arrival>
        <arrival publicID="smi:local/5ace292a-04b0-4c88-8087-3e5fed3535bf">
          <pickID>smi:local/372d4778-f2fe-4df0-a28e-58e4d43b2811</pickID>
          <phase>S</phase>
          <azimuth>170.0</azimuth>
          <distance>1.8975685884885214</distance>
          <timeResidual>0.08</timeResidual>
          <timeWeight>0.0</timeWeight>
        </arrival>
        <arrival publicID="smi:local/bbf451de-5f78-4c5d-b8bb-25309cc63071">
          <pickID>smi:local/11e76b86-2813-4741-8e2d-bfe0e04ef467</pickID>
          <phase>S</phase>
          <azimuth>152.0</azimuth>
          <distance>1.96951431696202</distance>
          <timeResidual>-1.6</timeResidual>
          <timeWeight>0.0</timeWeight>
        </arrival>
      </origin>
      <pick publicID="smi:local/99951ec3-8901-40b4-bbd7-60f317f9a5df">
        <time>
          <value>2018-12-09T22:44:45.163134Z</value>
        </time>
        <waveformID networkCode="NZ" stationCode="HAZ" locationCode="10" channelCode="HHN"></waveformID>
        <methodID>smi:local/EQcorrscan</methodID>
        <phaseHint>S</phaseHint>
        <evaluationMode>automatic</evaluationMode>
        <comment id="smi:local/5e9ce77f-0c62-4675-867f-030e8f73333f">
          <text>cc_max=0.7383363842964172</text>
        </comment>
        <creationInfo>
          <agencyID>eqcorrscan.core.lag_calc</agencyID>
        </creationInfo>
      </pick>
      <pick publicID="smi:local/2affbefc-3c25-4b93-900f-9952992cd384">
        <time>
          <value>2018-12-09T22:44:50.627325Z</value>
        </time>
        <waveformID networkCode="NZ" stationCode="MUGZ" locationCode="10" channelCode="EHN"></waveformID>
        <methodID>smi:local/EQcorrscan</methodID>
        <phaseHint>S</phaseHint>
        <evaluationMode>automatic</evaluationMode>
        <comment id="smi:local/7cfa52c3-6ac7-45e7-8019-8b576e643d3a">
          <text>cc_max=0.8488479256629944</text>
        </comment>
        <creationInfo>
          <agencyID>eqcorrscan.core.lag_calc</agencyID>
        </creationInfo>
      </pick>
      <pick publicID="smi:local/ca8dd5cb-18d4-418c-ad34-cc5fb4efff94">
        <time>
          <value>2018-12-09T22:44:50.683072Z</value>
        </time>
        <waveformID networkCode="NZ" stationCode="MWZ" locationCode="10" channelCode="HHE"></waveformID>
        <methodID>smi:local/EQcorrscan</methodID>
        <phaseHint>S</phaseHint>
        <evaluationMode>automatic</evaluationMode>
        <comment id="smi:local/abed8d14-28fd-4366-9869-f6ecc2cec956">
          <text>cc_max=0.8018735647201538</text>
        </comment>
        <creationInfo>
          <agencyID>eqcorrscan.core.lag_calc</agencyID>
        </creationInfo>
      </pick>
      <pick publicID="smi:local/5f4e6cb4-88c8-4817-b6cc-f85e6b32c58d">
        <time>
          <value>2018-12-09T22:44:48.558391Z</value>
        </time>
        <waveformID networkCode="NZ" stationCode="MXZ" locationCode="10" channelCode="HHE"></waveformID>
        <methodID>smi:local/EQcorrscan</methodID>
        <phaseHint>S</phaseHint>
        <evaluationMode>automatic</evaluationMode>
        <comment id="smi:local/32b5fe64-23b4-4180-9b91-549603fd7a1f">
          <text>cc_max=0.9068557024002075</text>
        </comment>
        <creationInfo>
          <agencyID>eqcorrscan.core.lag_calc</agencyID>
        </creationInfo>
      </pick>
      <pick publicID="smi:local/81cd13e3-cf10-4a26-ab2e-b8b24a6439c5">
        <time>
          <value>2018-12-09T22:44:47.898396Z</value>
        </time>
        <waveformID networkCode="NZ" stationCode="URZ" locationCode="10" channelCode="HH2"></waveformID>
        <methodID>smi:local/EQcorrscan</methodID>
        <phaseHint>S</phaseHint>
        <evaluationMode>automatic</evaluationMode>
        <comment id="smi:local/24455b65-3429-4d1a-a1aa-be3c4c01b5b9">
          <text>cc_max=0.8408169746398926</text>
        </comment>
        <creationInfo>
          <agencyID>eqcorrscan.core.lag_calc</agencyID>
        </creationInfo>
      </pick>
    </event>
    <event publicID="smi:local/2019_03_19t05_41_26_20190319T054126.683130">
      <preferredOriginID>smi:local/baf38882-b56d-4abb-a2f4-508f4ae72ce7</preferredOriginID>
      <comment id="smi:local/df855725-450a-4c6f-9191-fa3ad06328ea">
        <text>Template: 2019_03_19t05_41_26</text>
      </comment>
      <comment id="smi:local/90ee602e-51b6-444c-88fe-b13ec137d61d">
        <text>threshold=1.8498632907867432</text>
      </comment>
      <comment id="smi:local/2c2235be-f254-4a5e-a93f-2d6ca7efd5d3">
        <text>detect_val=5.940263271331787</text>
      </comment>
      <comment id="smi:local/d3ed58aa-da45-45bc-9d3e-26df61be3b19">
        <text>channels used: ('HAZ', 'HHE') ('MXZ', 'HHE') ('RUGZ', 'EHE') ('TARZ', 'EHZ') ('TWGZ', 'EHE') ('WIZ', 'HHE')</text>
      </comment>
      <creationInfo>
        <author>EQcorrscan</author>
        <creationTime>2020-02-16T21:41:20.502182Z</creationTime>
      </creationInfo>
      <origin publicID="smi:local/baf38882-b56d-4abb-a2f4-508f4ae72ce7">
        <time>
          <value>2019-03-19T05:41:06.511840Z</value>
          <uncertainty>0.5421820212</uncertainty>
          <confidenceLevel>89.99999762</confidenceLevel>
        </time>
        <latitude>
          <value>-36.89922333</value>
          <uncertainty>3.988298578</uncertainty>
          <confidenceLevel>89.99999762</confidenceLevel>
        </latitude>
        <longitude>
          <value>177.2228851</value>
          <uncertainty>3.818758204</uncertainty>
          <confidenceLevel>89.99999762</confidenceLevel>
        </longitude>
        <depth>
          <value>5000.0</value>
          <uncertainty>0.0</uncertainty>
          <confidenceLevel>89.99999762</confidenceLevel>
        </depth>
        <depthType>operator assigned</depthType>
        <timeFixed>false</timeFixed>
        <methodID>smi:nz.org.geonet/LOCSAT</methodID>
        <earthModelID>smi:nz.org.geonet/iasp91</earthModelID>
        <evaluationMode>automatic</evaluationMode>
        <evaluationStatus>preliminary</evaluationStatus>
        <comment id="smi:local/a584d1f0-2759-432e-aa19-f916c662a10e">
          <text>Origin automatically assigned based on template origin: use with caution.</text>
        </comment>
        <creationInfo>
          <author>EQcorrscan</author>
          <creationTime>2020-02-16T21:41:20.503512Z</creationTime>
        </creationInfo>
        <originUncertainty>
          <preferredDescription>confidence ellipsoid</preferredDescription>
          <horizontalUncertainty>5521.724348</horizontalUncertainty>
          <minHorizontalUncertainty>2909.451636</minHorizontalUncertainty>
          <maxHorizontalUncertainty>6590.288108</maxHorizontalUncertainty>
          <azimuthMaxHorizontalUncertainty>43.15291446</azimuthMaxHorizontalUncertainty>
          <confidenceEllipsoid>
            <semiMajorAxisLength>7678383.719</semiMajorAxisLength>
            <semiMinorAxisLength>0.0</semiMinorAxisLength>
            <semiIntermediateAxisLength>3389819.339</semiIntermediateAxisLength>
            <majorAxisPlunge>0.0</majorAxisPlunge>
            <majorAxisAzimuth>43.15291446</majorAxisAzimuth>
            <majorAxisRotation>0.0</majorAxisRotation>
          </confidenceEllipsoid>
        </originUncertainty>
      </origin>
      <origin publicID="smi:local/7c3115e8-5bd2-4fbf-a7a0-c13989f9144b">
        <time>
          <value>2019-03-19T05:41:05.700000Z</value>
        </time>
        <latitude>
          <value>-36.94</value>
        </latitude>
        <longitude>
          <value>177.279</value>
        </longitude>
        <depth>
          <value>15000.0</value>
        </depth>
        <quality>
          <standardError>1.2</standardError>
        </quality>
        <comment id="smi:local/480d09d7-454f-42c1-8e70-214c60a2134a">
          <text>Number of stations=5</text>
        </comment>
        <arrival publicID="smi:local/640e4aab-0fac-461a-92bd-56771174ba59">
          <pickID>smi:local/2dbfe5c3-5feb-4ab9-a533-0a069d0875a0</pickID>
          <phase>S</phase>
          <azimuth>187.0</azimuth>
          <distance>0.587257008664931</distance>
          <timeResidual>-0.4</timeResidual>
          <timeWeight>0.0</timeWeight>
        </arrival>
        <arrival publicID="smi:local/c24c04d7-e4bb-4951-9285-be33b6fa88c2">
          <pickID>smi:local/c970c8de-7819-4fd2-a800-c3a7ac3fcd77</pickID>
          <phase>S</phase>
          <azimuth>154.0</azimuth>
          <distance>0.9083148219779178</distance>
          <timeResidual>2.19</timeResidual>
          <timeWeight>0.0</timeWeight>
        </arrival>
        <arrival publicID="smi:local/a40a42b0-3b6f-4b24-9a4e-3925df6222f6">
          <pickID>smi:local/5f92c96b-934c-4317-be79-8df7aa7d6e6f</pickID>
          <phase>S</phase>
          <azimuth>127.0</azimuth>
          <distance>1.0252266307473528</distance>
          <timeResidual>-0.72</timeResidual>
          <timeWeight>0.0</timeWeight>
        </arrival>
        <arrival publicID="smi:local/86d4cc01-03f0-417b-a6eb-e926255e9592">
          <pickID>smi:local/6b0496e2-1bff-482b-a55c-04f1bc784016</pickID>
          <phase>S</phase>
          <azimuth>163.0</azimuth>
          <distance>1.0701927110432894</distance>
          <timeResidual>-1.31</timeResidual>
          <timeWeight>0.0</timeWeight>
        </arrival>
        <arrival publicID="smi:local/ae414393-237e-4ab8-b6ca-e569e9dca973">
          <pickID>smi:local/d74bb293-f293-4f6e-b70c-6a6c48c92ac7</pickID>
          <phase>P</phase>
          <azimuth>205.0</azimuth>
          <distance>1.4299213534107815</distance>
          <timeResidual>0.24</timeResidual>
          <timeWeight>0.0</timeWeight>
        </arrival>
      </origin>
      <pick publicID="smi:local/5c158cc8-4d9f-4563-8967-dfb16c173811">
        <time>
          <value>2019-03-19T05:41:39.103130Z</value>
        </time>
        <waveformID networkCode="NZ" stationCode="HAZ" locationCode="10" channelCode="HHE"></waveformID>
        <methodID>smi:local/EQcorrscan</methodID>
        <phaseHint>S</phaseHint>
        <evaluationMode>automatic</evaluationMode>
        <comment id="smi:local/b79f30b5-f504-45bf-b308-605f733d3277">
          <text>cc_max=1.0</text>
        </comment>
        <creationInfo>
          <agencyID>eqcorrscan.core.lag_calc</agencyID>
        </creationInfo>
      </pick>
      <pick publicID="smi:local/7f76d0fc-4304-46a0-afc2-5be4c14ca8d4">
        <time>
          <value>2019-03-19T05:41:39.718393Z</value>
        </time>
        <waveformID networkCode="NZ" stationCode="MXZ" locationCode="10" channelCode="HHE"></waveformID>
        <methodID>smi:local/EQcorrscan</methodID>
        <phaseHint>S</phaseHint>
        <evaluationMode>automatic</evaluationMode>
        <comment id="smi:local/b288a1b4-f805-44a6-9f6e-4f4967bf47e0">
          <text>cc_max=0.9801428914070129</text>
        </comment>
        <creationInfo>
          <agencyID>eqcorrscan.core.lag_calc</agencyID>
        </creationInfo>
      </pick>
      <pick publicID="smi:local/ed03a3fc-ff94-468f-a1ca-448fd32e81a9">
        <time>
          <value>2019-03-19T05:41:41.203129Z</value>
        </time>
        <waveformID networkCode="NZ" stationCode="RUGZ" locationCode="10" channelCode="EHE"></waveformID>
        <methodID>smi:local/EQcorrscan</methodID>
        <phaseHint>S</phaseHint>
        <evaluationMode>automatic</evaluationMode>
        <comment id="smi:local/953180d9-b769-4efe-af08-d0228d15f91d">
          <text>cc_max=1.0</text>
        </comment>
        <creationInfo>
          <agencyID>eqcorrscan.core.lag_calc</agencyID>
        </creationInfo>
      </pick>
      <pick publicID="smi:local/8a43ccdd-0220-4031-b36d-1b7303f4fd4b">
        <time>
          <value>2019-03-19T05:41:32.978391Z</value>
        </time>
        <waveformID networkCode="NZ" stationCode="TARZ" locationCode="10" channelCode="EHZ"></waveformID>
        <methodID>smi:local/EQcorrscan</methodID>
        <phaseHint>P</phaseHint>
        <evaluationMode>automatic</evaluationMode>
        <comment id="smi:local/2a7407e4-ac05-4e47-a126-7e932231f6e8">
          <text>cc_max=0.9599114060401917</text>
        </comment>
        <creationInfo>
          <agencyID>eqcorrscan.core.lag_calc</agencyID>
        </creationInfo>
      </pick>
      <pick publicID="smi:local/56f77bf7-30c2-4cb8-bbb9-20ceda4a929a">
        <time>
          <value>2019-03-19T05:41:27.183132Z</value>
        </time>
        <waveformID networkCode="NZ" stationCode="WIZ" locationCode="10" channelCode="HHE"></waveformID>
        <methodID>smi:local/EQcorrscan</methodID>
        <phaseHint>S</phaseHint>
        <evaluationMode>automatic</evaluationMode>
        <comment id="smi:local/ac79ef57-4e4c-4f07-b031-a4ef21f264d9">
          <text>cc_max=0.9999999403953552</text>
        </comment>
        <creationInfo>
          <agencyID>eqcorrscan.core.lag_calc</agencyID>
        </creationInfo>
      </pick>
    </event>
    <event publicID="smi:local/2019_03_19t05_41_26_20190319T054239.303130">
      <preferredOriginID>smi:local/8122b5a8-db32-4510-a71f-e2caaf879b56</preferredOriginID>
      <comment id="smi:local/6a418052-94f6-4335-b5ad-d37cc7b11f22">
        <text>Template: 2019_03_19t05_41_26</text>
      </comment>
      <comment id="smi:local/506a2f0a-c61d-4cec-aa83-1b1344b75754">
        <text>threshold=1.8498632907867432</text>
      </comment>
      <comment id="smi:local/edc70a4d-72e7-4dc2-b34f-0a2fd361462e">
        <text>detect_val=4.5531005859375</text>
      </comment>
      <comment id="smi:local/c3a128ef-da37-444a-a62f-f8f23a32bee8">
        <text>channels used: ('HAZ', 'HHE') ('MXZ', 'HHE') ('RUGZ', 'EHE') ('TARZ', 'EHZ') ('TWGZ', 'EHE') ('WIZ', 'HHE')</text>
      </comment>
      <creationInfo>
        <author>EQcorrscan</author>
        <creationTime>2020-02-16T21:41:20.507028Z</creationTime>
      </creationInfo>
      <origin publicID="smi:local/8122b5a8-db32-4510-a71f-e2caaf879b56">
        <time>
          <value>2019-03-19T05:42:19.131840Z</value>
          <uncertainty>0.5421820212</uncertainty>
          <confidenceLevel>89.99999762</confidenceLevel>
        </time>
        <latitude>
          <value>-36.89922333</value>
          <uncertainty>3.988298578</uncertainty>
          <confidenceLevel>89.99999762</confidenceLevel>
        </latitude>
        <longitude>
          <value>177.2228851</value>
          <uncertainty>3.818758204</uncertainty>
          <confidenceLevel>89.99999762</confidenceLevel>
        </longitude>
        <depth>
          <value>5000.0</value>
          <uncertainty>0.0</uncertainty>
          <confidenceLevel>89.99999762</confidenceLevel>
        </depth>
        <depthType>operator assigned</depthType>
        <timeFixed>false</timeFixed>
        <methodID>smi:nz.org.geonet/LOCSAT</methodID>
        <earthModelID>smi:nz.org.geonet/iasp91</earthModelID>
